[{"OBJECT_NAME":"STARLINK-5579","OBJECT_ID":"2023-028F","EPOCH":"2026-03-09T21:46:39.203616","MEAN_MOTION":14.98333957,"ECCENTRICITY":0.00023345,"INCLINATION":69.9991,"RA_OF_ASC_NODE":243.8699,"ARG_OF_PERICENTER":271.0095,"MEAN_ANOMALY":89.0797,"EPHEMERIS_TYPE":0,"CLASSIFICATION_TYPE":"U","NORAD_CAT_ID":55746,"ELEMENT_SET_NO":999,"REV_AT_EPOCH":16607,"BSTAR":4.4316209e-5,"MEAN_MOTION_DOT":4.36e-6,"MEAN_MOTION_DDOT":0},{"OBJECT_NAME":"IKONOS 2","OBJECT_ID":"1999-051A","EPOCH":"2026-03-09T15:19:40.153152","MEAN_MOTION":14.96976552,"ECCENTRICITY":0.0006412,"INCLINATION":98.1486,"RA_OF_ASC_NODE":313.4587,"ARG_OF_PERICENTER":157.8343,"MEAN_ANOMALY":202.3156,"EPHEMERIS_TYPE":0,"CLASSIFICATION_TYPE":"U","NORAD_CAT_ID":25919,"ELEMENT_SET_NO":999,"REV_AT_EPOCH":42402,"BSTAR":0.00024901,"MEAN_MOTION_DOT":2.801e-5,"MEAN_MOTION_DDOT":0}]
